start=new Date('2023-04-22T00:00:00.000Z').valueOf();
sats=[{"ECCENTRICITY":"0.00014120","INCLINATION":"53.2163","ARG_OF_PERICENTER":"105.1112","CLASSIFICATION_TYPE":"U","TLE_LINE1":"1 52112U 22029AA  23111.73675194 -.00000112  00000-0  11042-4 0  9993","SEMIMAJOR_AXIS":"6917.892","GP_ID":"230528224","COUNTRY_CODE":"US","RCS_SIZE":"LARGE","LAUNCH_DATE":"2022-03-19","CENTER_NAME":"EARTH","MEAN_MOTION_DOT":"-0.00000112","PERIOD":"95.438","EPHEMERIS_TYPE":"0","REV_AT_EPOCH":"6182","OBJECT_NAME":"STARLINK-3734","OBJECT_TYPE":"PAYLOAD","MEAN_ELEMENT_THEORY":"SGP4","DECAY_DATE":null,"TLE_LINE2":"2 52112  53.2163 126.0102 0001412 105.1112 255.0036 15.08836232 61820","PERIAPSIS":"538.780","OBJECT_ID":"2022-029AA","MEAN_ANOMALY":"255.0036","RA_OF_ASC_NODE":"126.0102","NORAD_CAT_ID":"52112","EPOCH":"2023-04-21T17:40:55.367616","ELEMENT_SET_NO":"999","BSTAR":"0.00001104200000","REF_FRAME":"TEME","SITE":"AFETR","MEAN_MOTION":"15.08836232","TIME_SYSTEM":"UTC","APOAPSIS":"540.734","FILE":"3891716","MEAN_MOTION_DDOT":"0.0000000000000"},{"NORAD_CAT_ID":"52113","EPOCH":"2023-04-21T10:58:10.959456","ELEMENT_SET_NO":"999","BSTAR":"0.00005237300000","REF_FRAME":"TEME","SITE":"AFETR","MEAN_ANOMALY":"263.1055","RA_OF_ASC_NODE":"127.2627","TIME_SYSTEM":"UTC","APOAPSIS":"540.654","FILE":"3891716","MEAN_MOTION_DDOT":"0.0000000000000","MEAN_MOTION":"15.08836380","RCS_SIZE":"LARGE","CENTER_NAME":"EARTH","LAUNCH_DATE":"2022-03-19","PERIOD":"95.438","MEAN_MOTION_DOT":"0.00000546","INCLINATION":"53.2149","ECCENTRICITY":"0.00012970","ARG_OF_PERICENTER":"97.0085","CLASSIFICATION_TYPE":"U","COUNTRY_CODE":"US","TLE_LINE1":"1 52113U 22029AB  23111.45707129  .00000546  00000-0  52373-4 0  9999","GP_ID":"230528970","SEMIMAJOR_AXIS":"6917.891","TLE_LINE2":"2 52113  53.2149 127.2627 0001297  97.0085 263.1055 15.08836380 61789","PERIAPSIS":"538.859","OBJECT_ID":"2022-029AB","EPHEMERIS_TYPE":"0","REV_AT_EPOCH":"6178","OBJECT_TYPE":"PAYLOAD","OBJECT_NAME":"STARLINK-3736","DECAY_DATE":null,"MEAN_ELEMENT_THEORY":"SGP4"},{"OBJECT_ID":"2022-029AC","TLE_LINE2":"2 52114  53.2138 126.0249 0001507  97.1968 262.9195 15.08839184 61822","PERIAPSIS":"538.705","OBJECT_NAME":"STARLINK-3737","OBJECT_TYPE":"PAYLOAD","MEAN_ELEMENT_THEORY":"SGP4","DECAY_DATE":null,"EPHEMERIS_TYPE":"0","REV_AT_EPOCH":"6182","LAUNCH_DATE":"2022-03-19","CENTER_NAME":"EARTH","PERIOD":"95.438","MEAN_MOTION_DOT":"-0.00000216","RCS_SIZE":"LARGE","CLASSIFICATION_TYPE":"U","TLE_LINE1":"1 52114U 22029AC  23111.73306947 -.00000216  00000-0  45106-5 0  9996","SEMIMAJOR_AXIS":"6917.883","GP_ID":"230529719","COUNTRY_CODE":"US","INCLINATION":"53.2138","ECCENTRICITY":"0.00015070","ARG_OF_PERICENTER":"97.1968","APOAPSIS":"540.790","FILE":"3891716","MEAN_MOTION_DDOT":"0.0000000000000","TIME_SYSTEM":"UTC","MEAN_MOTION":"15.08839184","REF_FRAME":"TEME","SITE":"AFETR","NORAD_CAT_ID":"52114","EPOCH":"2023-04-21T17:35:37.202208","ELEMENT_SET_NO":"999","BSTAR":"0.00000451060000","RA_OF_ASC_NODE":"126.0249","MEAN_ANOMALY":"262.9195"},{"ARG_OF_PERICENTER":"123.1557","INCLINATION":"53.2142","ECCENTRICITY":"0.00018210","CLASSIFICATION_TYPE":"U","COUNTRY_CODE":"US","TLE_LINE1":"1 52115U 22029AD  23111.31719512 -.00017187  00000-0 -10640-2 0  9995","GP_ID":"230497826","SEMIMAJOR_AXIS":"6917.848","RCS_SIZE":"LARGE","LAUNCH_DATE":"2022-03-19","CENTER_NAME":"EARTH","MEAN_MOTION_DOT":"-0.00017187","PERIOD":"95.437","EPHEMERIS_TYPE":"0","REV_AT_EPOCH":"6176","OBJECT_NAME":"STARLINK-3685","OBJECT_TYPE":"PAYLOAD","DECAY_DATE":null,"MEAN_ELEMENT_THEORY":"SGP4","TLE_LINE2":"2 52115  53.2142 127.8906 0001821 123.1557 236.9610 15.08850626 61760","PERIAPSIS":"538.453","OBJECT_ID":"2022-029AD","MEAN_ANOMALY":"236.9610","RA_OF_ASC_NODE":"127.8906","NORAD_CAT_ID":"52115","EPOCH":"2023-04-21T07:36:45.658368","ELEMENT_SET_NO":"999","BSTAR":"-0.00106400000000","REF_FRAME":"TEME","SITE":"AFETR","MEAN_MOTION":"15.08850626","TIME_SYSTEM":"UTC","APOAPSIS":"540.973","FILE":"3891529","MEAN_MOTION_DDOT":"0.0000000000000"},{"REF_FRAME":"TEME","SITE":"AFETR","ELEMENT_SET_NO":"999","BSTAR":"0.00011120000000","NORAD_CAT_ID":"52116","EPOCH":"2023-04-21T12:38:52.020672","RA_OF_ASC_NODE":"126.9480","MEAN_ANOMALY":"251.2457","MEAN_MOTION_DDOT":"0.0000000000000","APOAPSIS":"540.905","FILE":"3891716","TIME_SYSTEM":"UTC","MEAN_MOTION":"15.08835587","MEAN_MOTION_DOT":"0.00001482","PERIOD":"95.438","LAUNCH_DATE":"2022-03-19","CENTER_NAME":"EARTH","RCS_SIZE":"LARGE","GP_ID":"230528725","TLE_LINE1":"1 52116U 22029AE  23111.52699098  .00001482  00000-0  11120-3 0  9999","SEMIMAJOR_AXIS":"6917.894","COUNTRY_CODE":"US","CLASSIFICATION_TYPE":"U","ECCENTRICITY":"0.00016570","INCLINATION":"53.2146","ARG_OF_PERICENTER":"108.8715","OBJECT_ID":"2022-029AE","PERIAPSIS":"538.613","TLE_LINE2":"2 52116  53.2146 126.9480 0001657 108.8715 251.2457 15.08835587 61796","DECAY_DATE":null,"MEAN_ELEMENT_THEORY":"SGP4","OBJECT_TYPE":"PAYLOAD","OBJECT_NAME":"STARLINK-3735","REV_AT_EPOCH":"6179","EPHEMERIS_TYPE":"0"},{"MEAN_ANOMALY":"269.2616","RA_OF_ASC_NODE":"125.8407","BSTAR":"0.00004605400000","ELEMENT_SET_NO":"999","EPOCH":"2023-04-21T18:33:54.695808","NORAD_CAT_ID":"52117","SITE":"AFETR","REF_FRAME":"TEME","MEAN_MOTION":"15.08841338","TIME_SYSTEM":"UTC","MEAN_MOTION_DDOT":"0.0000000000000","FILE":"3891716","APOAPSIS":"540.596","ARG_OF_PERICENTER":"90.8518","ECCENTRICITY":"0.00012360","INCLINATION":"53.2159","TLE_LINE1":"1 52117U 22029AF  23111.77354972  .00000445  00000-0  46054-4 0  9999","GP_ID":"230528470","COUNTRY_CODE":"US","SEMIMAJOR_AXIS":"6917.876","CLASSIFICATION_TYPE":"U","RCS_SIZE":"LARGE","MEAN_MOTION_DOT":"0.00000445","PERIOD":"95.437","LAUNCH_DATE":"2022-03-19","CENTER_NAME":"EARTH","REV_AT_EPOCH":"6184","EPHEMERIS_TYPE":"0","DECAY_DATE":null,"MEAN_ELEMENT_THEORY":"SGP4","OBJECT_TYPE":"PAYLOAD","OBJECT_NAME":"STARLINK-3738","PERIAPSIS":"538.886","TLE_LINE2":"2 52117  53.2159 125.8407 0001236  90.8518 269.2616 15.08841338 61845","OBJECT_ID":"2022-029AF"},{"RCS_SIZE":"LARGE","LAUNCH_DATE":"2022-03-19","CENTER_NAME":"EARTH","MEAN_MOTION_DOT":"-0.00000101","PERIOD":"95.438","INCLINATION":"53.2151","ECCENTRICITY":"0.00010840","ARG_OF_PERICENTER":"88.2717","CLASSIFICATION_TYPE":"U","TLE_LINE1":"1 52118U 22029AG  23111.32091122 -.00000101  00000-0  11736-4 0  9995","COUNTRY_CODE":"US","GP_ID":"230529219","SEMIMAJOR_AXIS":"6917.889","TLE_LINE2":"2 52118  53.2151 127.8749 0001084  88.2717 271.8399 15.08837127 61761","PERIAPSIS":"539.004","OBJECT_ID":"2022-029AG","EPHEMERIS_TYPE":"0","REV_AT_EPOCH":"6176","OBJECT_TYPE":"PAYLOAD","OBJECT_NAME":"STARLINK-3743","MEAN_ELEMENT_THEORY":"SGP4","DECAY_DATE":null,"EPOCH":"2023-04-21T07:42:06.729408","NORAD_CAT_ID":"52118","BSTAR":"0.00001173600000","ELEMENT_SET_NO":"999","SITE":"AFETR","REF_FRAME":"TEME","MEAN_ANOMALY":"271.8399","RA_OF_ASC_NODE":"127.8749","TIME_SYSTEM":"UTC","FILE":"3891716","APOAPSIS":"540.504","MEAN_MOTION_DDOT":"0.0000000000000","MEAN_MOTION":"15.08837127"},{"ARG_OF_PERICENTER":"78.9741","INCLINATION":"53.2157","ECCENTRICITY":"0.00013260","CLASSIFICATION_TYPE":"U","GP_ID":"230529471","TLE_LINE1":"1 52119U 22029AH  23111.76619406  .00000503  00000-0  49668-4 0  9995","SEMIMAJOR_AXIS":"6917.886","COUNTRY_CODE":"US","RCS_SIZE":"LARGE","LAUNCH_DATE":"2022-03-19","CENTER_NAME":"EARTH","MEAN_MOTION_DOT":"0.00000503","PERIOD":"95.438","EPHEMERIS_TYPE":"0","REV_AT_EPOCH":"6183","OBJECT_NAME":"STARLINK-3558","OBJECT_TYPE":"PAYLOAD","DECAY_DATE":null,"MEAN_ELEMENT_THEORY":"SGP4","TLE_LINE2":"2 52119  53.2157 125.8764 0001326  78.9741 281.1400 15.08838132 61837","PERIAPSIS":"538.834","OBJECT_ID":"2022-029AH","MEAN_ANOMALY":"281.1400","RA_OF_ASC_NODE":"125.8764","NORAD_CAT_ID":"52119","EPOCH":"2023-04-21T18:23:19.166784","ELEMENT_SET_NO":"999","BSTAR":"0.00004966800000","REF_FRAME":"TEME","SITE":"AFETR","MEAN_MOTION":"15.08838132","TIME_SYSTEM":"UTC","APOAPSIS":"540.668","FILE":"3891716","MEAN_MOTION_DDOT":"0.0000000000000"},{"REV_AT_EPOCH":"6184","EPHEMERIS_TYPE":"0","DECAY_DATE":null,"MEAN_ELEMENT_THEORY":"SGP4","OBJECT_NAME":"STARLINK-3534","OBJECT_TYPE":"PAYLOAD","PERIAPSIS":"538.749","TLE_LINE2":"2 52120  53.2138 125.8270 0001423  78.6910 281.4242 15.08844057 61844","OBJECT_ID":"2022-029AJ","ARG_OF_PERICENTER":"78.6910","ECCENTRICITY":"0.00014230","INCLINATION":"53.2138","TLE_LINE1":"1 52120U 22029AJ  23111.77723044  .00004846  00000-0  32229-3 0  9990","GP_ID":"230528225","SEMIMAJOR_AXIS":"6917.868","COUNTRY_CODE":"US","CLASSIFICATION_TYPE":"U","RCS_SIZE":"LARGE","PERIOD":"95.437","MEAN_MOTION_DOT":"0.00004846","LAUNCH_DATE":"2022-03-19","CENTER_NAME":"EARTH","MEAN_MOTION":"15.08844057","TIME_SYSTEM":"UTC","MEAN_MOTION_DDOT":"0.0000000000000","FILE":"3891716","APOAPSIS":"540.717","MEAN_ANOMALY":"281.4242","RA_OF_ASC_NODE":"125.8270","BSTAR":"0.00032229000000","ELEMENT_SET_NO":"999","EPOCH":"2023-04-21T18:39:12.710016","NORAD_CAT_ID":"52120","SITE":"AFETR","REF_FRAME":"TEME"},{"RCS_SIZE":"LARGE","PERIOD":"95.438","MEAN_MOTION_DOT":"0.00000331","CENTER_NAME":"EARTH","LAUNCH_DATE":"2022-03-19","INCLINATION":"53.2158","ECCENTRICITY":"0.00012230","ARG_OF_PERICENTER":"90.3405","COUNTRY_CODE":"US","TLE_LINE1":"1 52121U 22029AK  23111.74871078  .00000331  00000-0  38871-4 0  9994","GP_ID":"230528971","SEMIMAJOR_AXIS":"6917.884","CLASSIFICATION_TYPE":"U","PERIAPSIS":"538.903","TLE_LINE2":"2 52121  53.2158 115.9538 0001223  90.3405 269.7727 15.08838938 61963","OBJECT_ID":"2022-029AK","REV_AT_EPOCH":"6196","EPHEMERIS_TYPE":"0","MEAN_ELEMENT_THEORY":"SGP4","DECAY_DATE":null,"OBJECT_NAME":"STARLINK-3678","OBJECT_TYPE":"PAYLOAD","BSTAR":"0.00003887100000","ELEMENT_SET_NO":"999","EPOCH":"2023-04-21T17:58:08.611392","NORAD_CAT_ID":"52121","SITE":"AFETR","REF_FRAME":"TEME","MEAN_ANOMALY":"269.7727","RA_OF_ASC_NODE":"115.9538","TIME_SYSTEM":"UTC","MEAN_MOTION_DDOT":"0.0000000000000","FILE":"3891716","APOAPSIS":"540.595","MEAN_MOTION":"15.08838938"}];
